KUIPER-00008            
1 63724U 25088A   25362.44400252 -.00006364  00000+0 -50265-3 0  9995
2 63724  51.8922  51.6799 0008082 223.8106 136.2224 14.98644481 37377
KUIPER-00009            
1 63725U 25088B   25362.47138036 -.00000117  00000+0  13967-4 0  9995
2 63725  51.9039  61.5495 0010727 219.7573 140.2604 14.79879718 37236
KUIPER-00010            
1 63726U 25088C   25362.31411986  .00003376  00000+0  46562-3 0  9992
2 63726  51.9017  38.5572 0011489 263.4175  96.5480 14.80475495 37166
KUIPER-00011            
1 63727U 25088D   25362.35406417 -.00004779  00000+0 -59684-3 0  9999
2 63727  51.9028  46.1005 0012857 238.3097 121.6613 14.79947027 37193
KUIPER-00012            
1 63728U 25088E   25362.42362507 -.00035559  00000+0 -50235-2 0  9991
2 63728  51.9024  29.5194 0008008 253.3870 106.6212 14.76738148 37381
KUIPER-00013            
1 63729U 25088F   25362.47039339 -.00001783  00000+0 -20485-3 0  9998
2 63729  51.9045  63.0161 0007107 149.7632 210.3742 14.79875751 37022
KUIPER-00014            
1 63730U 25088G   25362.46874334  .00018979  00000+0  25201-2 0  9994
2 63730  51.9017  63.9963 0005852 221.5643 138.4875 14.79781526 36828
KUIPER-00015            
1 63731U 25088H   25362.48624331  .00004343  00000+0  56873-3 0  9997
2 63731  51.9001  74.6689 0010220 197.9393 162.1211 14.82079533 37134
