<?xml version="1.0" encoding="UTF-8"?>
<ndm xmlns:xsi="http://www.w3.org/2001/XMLSchema-instance" xsi:noNamespaceSchemaLocation="https://sanaregistry.org/r/ndmxml_unqualified/ndmxml-2.0.0-master-2.0.xsd">
<omm id="CCSDS_OMM_VERS" version="2.0">
<header><CREATION_DATE/><ORIGINATOR/></header><body><segment><metadata><OBJECT_NAME>KUIPER-00008</OBJECT_NAME><OBJECT_ID>2025-088A</OBJECT_ID><CENTER_NAME>EARTH</CENTER_NAME><REF_FRAME>TEME</REF_FRAME><TIME_SYSTEM>UTC</TIME_SYSTEM><MEAN_ELEMENT_THEORY>SGP4</MEAN_ELEMENT_THEORY></metadata><data><meanElements><EPOCH>2025-12-28T10:39:21.817728</EPOCH><MEAN_MOTION>14.98644481</MEAN_MOTION><ECCENTRICITY>.0008082</ECCENTRICITY><INCLINATION>51.8922</INCLINATION><RA_OF_ASC_NODE>51.6799</RA_OF_ASC_NODE><ARG_OF_PERICENTER>223.8106</ARG_OF_PERICENTER><MEAN_ANOMALY>136.2224</MEAN_ANOMALY></meanElements><tleParameters><EPHEMERIS_TYPE>0</EPHEMERIS_TYPE><CLASSIFICATION_TYPE>U</CLASSIFICATION_TYPE><NORAD_CAT_ID>63724</NORAD_CAT_ID><ELEMENT_SET_NO>999</ELEMENT_SET_NO><REV_AT_EPOCH>3737</REV_AT_EPOCH><BSTAR>-.50265E-3</BSTAR><MEAN_MOTION_DOT>-.6364E-4</MEAN_MOTION_DOT><MEAN_MOTION_DDOT>0</MEAN_MOTION_DDOT></tleParameters></data></segment></body></omm>
<omm id="CCSDS_OMM_VERS" version="2.0">
<header><CREATION_DATE/><ORIGINATOR/></header><body><segment><metadata><OBJECT_NAME>KUIPER-00009</OBJECT_NAME><OBJECT_ID>2025-088B</OBJECT_ID><CENTER_NAME>EARTH</CENTER_NAME><REF_FRAME>TEME</REF_FRAME><TIME_SYSTEM>UTC</TIME_SYSTEM><MEAN_ELEMENT_THEORY>SGP4</MEAN_ELEMENT_THEORY></metadata><data><meanElements><EPOCH>2025-12-28T11:18:47.263104</EPOCH><MEAN_MOTION>14.79879718</MEAN_MOTION><ECCENTRICITY>.0010727</ECCENTRICITY><INCLINATION>51.9039</INCLINATION><RA_OF_ASC_NODE>61.5495</RA_OF_ASC_NODE><ARG_OF_PERICENTER>219.7573</ARG_OF_PERICENTER><MEAN_ANOMALY>140.2604</MEAN_ANOMALY></meanElements><tleParameters><EPHEMERIS_TYPE>0</EPHEMERIS_TYPE><CLASSIFICATION_TYPE>U</CLASSIFICATION_TYPE><NORAD_CAT_ID>63725</NORAD_CAT_ID><ELEMENT_SET_NO>999</ELEMENT_SET_NO><REV_AT_EPOCH>3723</REV_AT_EPOCH><BSTAR>.13967E-4</BSTAR><MEAN_MOTION_DOT>-.117E-5</MEAN_MOTION_DOT><MEAN_MOTION_DDOT>0</MEAN_MOTION_DDOT></tleParameters></data></segment></body></omm>
<omm id="CCSDS_OMM_VERS" version="2.0">
<header><CREATION_DATE/><ORIGINATOR/></header><body><segment><metadata><OBJECT_NAME>KUIPER-00010</OBJECT_NAME><OBJECT_ID>2025-088C</OBJECT_ID><CENTER_NAME>EARTH</CENTER_NAME><REF_FRAME>TEME</REF_FRAME><TIME_SYSTEM>UTC</TIME_SYSTEM><MEAN_ELEMENT_THEORY>SGP4</MEAN_ELEMENT_THEORY></metadata><data><meanElements><EPOCH>2025-12-28T07:32:19.955904</EPOCH><MEAN_MOTION>14.80475495</MEAN_MOTION><ECCENTRICITY>.0011489</ECCENTRICITY><INCLINATION>51.9017</INCLINATION><RA_OF_ASC_NODE>38.5572</RA_OF_ASC_NODE><ARG_OF_PERICENTER>263.4175</ARG_OF_PERICENTER><MEAN_ANOMALY>96.5480</MEAN_ANOMALY></meanElements><tleParameters><EPHEMERIS_TYPE>0</EPHEMERIS_TYPE><CLASSIFICATION_TYPE>U</CLASSIFICATION_TYPE><NORAD_CAT_ID>63726</NORAD_CAT_ID><ELEMENT_SET_NO>999</ELEMENT_SET_NO><REV_AT_EPOCH>3716</REV_AT_EPOCH><BSTAR>.46562E-3</BSTAR><MEAN_MOTION_DOT>.3376E-4</MEAN_MOTION_DOT><MEAN_MOTION_DDOT>0</MEAN_MOTION_DDOT></tleParameters></data></segment></body></omm>
<omm id="CCSDS_OMM_VERS" version="2.0">
<header><CREATION_DATE/><ORIGINATOR/></header><body><segment><metadata><OBJECT_NAME>KUIPER-00011</OBJECT_NAME><OBJECT_ID>2025-088D</OBJECT_ID><CENTER_NAME>EARTH</CENTER_NAME><REF_FRAME>TEME</REF_FRAME><TIME_SYSTEM>UTC</TIME_SYSTEM><MEAN_ELEMENT_THEORY>SGP4</MEAN_ELEMENT_THEORY></metadata><data><meanElements><EPOCH>2025-12-28T08:29:51.144288</EPOCH><MEAN_MOTION>14.79947027</MEAN_MOTION><ECCENTRICITY>.0012857</ECCENTRICITY><INCLINATION>51.9028</INCLINATION><RA_OF_ASC_NODE>46.1005</RA_OF_ASC_NODE><ARG_OF_PERICENTER>238.3097</ARG_OF_PERICENTER><MEAN_ANOMALY>121.6613</MEAN_ANOMALY></meanElements><tleParameters><EPHEMERIS_TYPE>0</EPHEMERIS_TYPE><CLASSIFICATION_TYPE>U</CLASSIFICATION_TYPE><NORAD_CAT_ID>63727</NORAD_CAT_ID><ELEMENT_SET_NO>999</ELEMENT_SET_NO><REV_AT_EPOCH>3719</REV_AT_EPOCH><BSTAR>-.59684E-3</BSTAR><MEAN_MOTION_DOT>-.4779E-4</MEAN_MOTION_DOT><MEAN_MOTION_DDOT>0</MEAN_MOTION_DDOT></tleParameters></data></segment></body></omm>
<omm id="CCSDS_OMM_VERS" version="2.0">
<header><CREATION_DATE/><ORIGINATOR/></header><body><segment><metadata><OBJECT_NAME>KUIPER-00012</OBJECT_NAME><OBJECT_ID>2025-088E</OBJECT_ID><CENTER_NAME>EARTH</CENTER_NAME><REF_FRAME>TEME</REF_FRAME><TIME_SYSTEM>UTC</TIME_SYSTEM><MEAN_ELEMENT_THEORY>SGP4</MEAN_ELEMENT_THEORY></metadata><data><meanElements><EPOCH>2025-12-28T10:10:01.206048</EPOCH><MEAN_MOTION>14.76738148</MEAN_MOTION><ECCENTRICITY>.0008008</ECCENTRICITY><INCLINATION>51.9024</INCLINATION><RA_OF_ASC_NODE>29.5194</RA_OF_ASC_NODE><ARG_OF_PERICENTER>253.3870</ARG_OF_PERICENTER><MEAN_ANOMALY>106.6212</MEAN_ANOMALY></meanElements><tleParameters><EPHEMERIS_TYPE>0</EPHEMERIS_TYPE><CLASSIFICATION_TYPE>U</CLASSIFICATION_TYPE><NORAD_CAT_ID>63728</NORAD_CAT_ID><ELEMENT_SET_NO>999</ELEMENT_SET_NO><REV_AT_EPOCH>3738</REV_AT_EPOCH><BSTAR>-.50235E-2</BSTAR><MEAN_MOTION_DOT>-.35559E-3</MEAN_MOTION_DOT><MEAN_MOTION_DDOT>0</MEAN_MOTION_DDOT></tleParameters></data></segment></body></omm>
<omm id="CCSDS_OMM_VERS" version="2.0">
<header><CREATION_DATE/><ORIGINATOR/></header><body><segment><metadata><OBJECT_NAME>KUIPER-00013</OBJECT_NAME><OBJECT_ID>2025-088F</OBJECT_ID><CENTER_NAME>EARTH</CENTER_NAME><REF_FRAME>TEME</REF_FRAME><TIME_SYSTEM>UTC</TIME_SYSTEM><MEAN_ELEMENT_THEORY>SGP4</MEAN_ELEMENT_THEORY></metadata><data><meanElements><EPOCH>2025-12-28T11:17:21.988896</EPOCH><MEAN_MOTION>14.79875751</MEAN_MOTION><ECCENTRICITY>.0007107</ECCENTRICITY><INCLINATION>51.9045</INCLINATION><RA_OF_ASC_NODE>63.0161</RA_OF_ASC_NODE><ARG_OF_PERICENTER>149.7632</ARG_OF_PERICENTER><MEAN_ANOMALY>210.3742</MEAN_ANOMALY></meanElements><tleParameters><EPHEMERIS_TYPE>0</EPHEMERIS_TYPE><CLASSIFICATION_TYPE>U</CLASSIFICATION_TYPE><NORAD_CAT_ID>63729</NORAD_CAT_ID><ELEMENT_SET_NO>999</ELEMENT_SET_NO><REV_AT_EPOCH>3702</REV_AT_EPOCH><BSTAR>-.20485E-3</BSTAR><MEAN_MOTION_DOT>-.1783E-4</MEAN_MOTION_DOT><MEAN_MOTION_DDOT>0</MEAN_MOTION_DDOT></tleParameters></data></segment></body></omm>
<omm id="CCSDS_OMM_VERS" version="2.0">
<header><CREATION_DATE/><ORIGINATOR/></header><body><segment><metadata><OBJECT_NAME>KUIPER-00014</OBJECT_NAME><OBJECT_ID>2025-088G</OBJECT_ID><CENTER_NAME>EARTH</CENTER_NAME><REF_FRAME>TEME</REF_FRAME><TIME_SYSTEM>UTC</TIME_SYSTEM><MEAN_ELEMENT_THEORY>SGP4</MEAN_ELEMENT_THEORY></metadata><data><meanElements><EPOCH>2025-12-28T11:14:59.424576</EPOCH><MEAN_MOTION>14.79781526</MEAN_MOTION><ECCENTRICITY>.0005852</ECCENTRICITY><INCLINATION>51.9017</INCLINATION><RA_OF_ASC_NODE>63.9963</RA_OF_ASC_NODE><ARG_OF_PERICENTER>221.5643</ARG_OF_PERICENTER><MEAN_ANOMALY>138.4875</MEAN_ANOMALY></meanElements><tleParameters><EPHEMERIS_TYPE>0</EPHEMERIS_TYPE><CLASSIFICATION_TYPE>U</CLASSIFICATION_TYPE><NORAD_CAT_ID>63730</NORAD_CAT_ID><ELEMENT_SET_NO>999</ELEMENT_SET_NO><REV_AT_EPOCH>3682</REV_AT_EPOCH><BSTAR>.25201E-2</BSTAR><MEAN_MOTION_DOT>.18979E-3</MEAN_MOTION_DOT><MEAN_MOTION_DDOT>0</MEAN_MOTION_DDOT></tleParameters></data></segment></body></omm>
<omm id="CCSDS_OMM_VERS" version="2.0">
<header><CREATION_DATE/><ORIGINATOR/></header><body><segment><metadata><OBJECT_NAME>KUIPER-00015</OBJECT_NAME><OBJECT_ID>2025-088H</OBJECT_ID><CENTER_NAME>EARTH</CENTER_NAME><REF_FRAME>TEME</REF_FRAME><TIME_SYSTEM>UTC</TIME_SYSTEM><MEAN_ELEMENT_THEORY>SGP4</MEAN_ELEMENT_THEORY></metadata><data><meanElements><EPOCH>2025-12-28T11:40:11.421984</EPOCH><MEAN_MOTION>14.82079533</MEAN_MOTION><ECCENTRICITY>.001022</ECCENTRICITY><INCLINATION>51.9001</INCLINATION><RA_OF_ASC_NODE>74.6689</RA_OF_ASC_NODE><ARG_OF_PERICENTER>197.9393</ARG_OF_PERICENTER><MEAN_ANOMALY>162.1211</MEAN_ANOMALY></meanElements><tleParameters><EPHEMERIS_TYPE>0</EPHEMERIS_TYPE><CLASSIFICATION_TYPE>U</CLASSIFICATION_TYPE><NORAD_CAT_ID>63731</NORAD_CAT_ID><ELEMENT_SET_NO>999</ELEMENT_SET_NO><REV_AT_EPOCH>3713</REV_AT_EPOCH><BSTAR>.56873E-3</BSTAR><MEAN_MOTION_DOT>.4343E-4</MEAN_MOTION_DOT><MEAN_MOTION_DDOT>0</MEAN_MOTION_DDOT></tleParameters></data></segment></body></omm>

</ndm>
